SL-4 R/B                
1 39679U 14021B   25354.28918806  .00008317  00000+0  20173-3 0  9997
2 39679  51.6091   3.8999 0101071 173.4446 186.7886 15.36839783644051
ALOS-2                  
1 39766U 14029A   25354.85899384  .00001669  00000+0  23030-3 0  9992
2 39766  97.9232  89.5898 0001413  95.8837 264.2536 14.79471940625211
YAOGAN-29               
1 41038U 15069A   25354.84938634  .00000315  00000+0  45527-4 0  9996
2 41038  98.0210  18.0472 0000521 170.4816 189.6407 14.82891364544199
ASTRO-H (HITOMI)        
1 41337U 16012A   25354.62576161  .00002365  00000+0  13855-3 0  9991
2 41337  30.9979 146.5292 0009722 257.8770 102.0779 15.09397922540273
HXMT (HUIYAN)           
1 42758U 17034A   25354.76163383  .00004243  00000+0  22447-3 0  9991
2 42758  43.0144  95.1101 0031072  96.1198 264.3191 15.16320013470557
CZ-2C R/B               
1 43521U 18054D   25354.46782726  .00085209  00000+0  52783-3 0  9995
2 43521  35.1325 128.4252 0015100 222.0230 137.9345 15.75638299416275
SAOCOM 1A               
1 43641U 18076A   25353.89549035  .00000993  00000+0  13119-3 0  9999
2 43641  97.8839 178.2129 0001511  80.1993 279.9391 14.82168152389549
H-2A R/B                
1 43682U 18084L   25353.52602102  .00013775  00000+0  37146-3 0  9996
2 43682  98.8764 189.0125 0026889 302.7309  57.1340 15.37604041393444
SAOCOM 1B               
1 46265U 20059A   25354.80441784  .00000700  00000+0  94514-4 0  9997
2 46265  97.8832 178.2088 0001419  87.4986 272.6389 14.82145522287067
CSS (TIANHE)            
1 48274U 21035A   25354.65636534  .00013883  00000+0  17373-3 0  9999
2 48274  41.4685 328.6338 0007728 100.5086 259.6623 15.59505050265261
COSMOS 2550             
1 48865U 21056A   25353.89888216  .00000080  00000+0  82513-5 0  9994
2 48865  67.1455 282.2793 0008368 269.6426  90.3770 15.33838622251223
CZ-2C R/B               
1 52794U 22058K   25354.22719911  .00019224  00000+0  34392-3 0  9996
2 52794  50.1915   5.3549 0044965 229.4522 130.2527 15.48848735197796
